0 FENGYUN 1C DEB
1 31532U 99025BXX 13279.35153007  .00003227  00000-0  17503-2 0  3126
2 31532 099.1801 314.3560 0166955 314.3743 044.4514 14.06301915332430
0 FENGYUN 1C DEB
1 31532U 99025BXX 13281.91278177  .00003349  00000-0  18248-2 0  3130
2 31532 099.1823 316.9606 0163417 306.7046 052.0518 14.06322898332795
0 FENGYUN 1C DEB
1 31532U 99025BXX 13283.33566541  .00003665  00000-0  19926-2 0  3149
2 31532 099.1777 318.4136 0163721 303.0842 055.6296 14.06341017332998
0 FENGYUN 1C DEB
1 31532U 99025BXX 13286.32368137  .00003755  00000-0  20403-2 0  3166
2 31532 099.1773 321.4437 0163538 294.7073 063.7313 14.06366426333419
0 FENGYUN 1C DEB
1 31532U 99025BXX 13287.31968788  .00003795  00000-0  20564-2 0  3177
2 31532 099.1750 322.4480 0165325 291.9956 066.4154 14.06375562333557
0 FENGYUN 1C DEB
1 31532U 99025BXX 13290.30767527  .00004094  00000-0  22181-2 0  3189
2 31532 099.1782 325.4792 0164292 284.1690 074.3188 14.06407710333974
0 FENGYUN 1C DEB
1 31532U 99025BXX 13290.87677141  .00004105  00000-0  22283-2 0  3190
2 31532 099.1819 326.0659 0162982 282.4561 075.8504 14.06412684334050
0 FENGYUN 1C DEB
1 31532U 99025BXX 13293.29557033  .00006130  00000-0  33064-2 0  3207
2 31532 099.1801 328.5203 0163825 275.4754 083.1463 14.06464305334396
